[Satellite]
VERSION=1.1
NAME=RADUGA 14 [-]
NICKNAME=RADUGA 14 [-]
TLE1=1 14725U 84016A   17185.92763226 -.00000010  00000-0  00000-0 0  9999
TLE2=2 14725  14.0563 340.5451 0000609 183.8587 156.0772  1.00274299 85316
